ZHUHAI-1 02 (CAS-4B)    
1 42759U 17034B   24189.89073399  .00016110  00000+0  56811-3 0  9996
2 42759  43.0180 109.4829 0010373 130.5637 229.6120 15.28982893390578
ZHUHAI-1 01 (CAS-4A)    
1 42761U 17034D   24189.89054300  .00016263  00000+0  57141-3 0  9996
2 42761  43.0220 107.8196 0009548 145.0958 215.0522 15.29104505390587
GAOFEN-4                
1 41194U 15083A   24189.57132458 -.00000338  00000+0  00000+0 0  9998
2 41194   0.0804 251.7851 0001260 205.0319 140.5189  1.00269446 31410
YAOGAN-28               
1 41026U 15064A   24190.13852238  .00010113  00000+0  42057-3 0  9993
2 41026  97.2137 339.6612 0007229 112.6482 247.5521 15.23941050482671
YAOGAN-29               
1 41038U 15069A   24189.97565840  .00000726  00000+0  99014-4 0  9996
2 41038  98.0541 204.5086 0002389 131.4625 228.6793 14.81730278465546
KENT RIDGE 1            
1 41167U 15077B   24190.08600161  .00004611  00000+0  20133-3 0  9990
2 41167  14.9807 112.3681 0009915   3.4474 356.5914 15.15294034473199
TELEOS-1                
1 41169U 15077D   24189.18066699  .00018140  00000+0  54232-3 0  9992
2 41169  14.9808  22.3188 0005831 168.1771 191.8690 15.31857692473921
JASON-3                 
1 41240U 16002A   24189.56673436 -.00000071  00000+0 -41726-4 0  9997
2 41240  66.0397 169.0132 0008487 269.6739  90.3304 12.80928940396117
SENTINEL-3A             
1 41335U 16011A   24189.92290807  .00000216  00000+0  10735-3 0  9993
2 41335  98.6230 256.4323 0001350  92.3756 267.7579 14.26742694436924
ZIYUAN 3-2 (ZY 3-2)     
1 41556U 16033A   24189.94128016  .00008546  00000+0  38460-3 0  9995
2 41556  97.4556 265.1084 0001669 134.8973 225.2398 15.21333857450156
CARTOSAT-2C             
1 41599U 16040A   24189.90248852  .00007026  00000+0  33505-3 0  9994
2 41599  97.4727 248.7467 0014263  90.8658 269.4211 15.19314172446021
SKYSAT-C1               
1 41601U 16040C   24189.25398142  .00009799  00000+0  34452-3 0  9995
2 41601  97.0608 248.6548 0003030 152.7309 207.4092 15.29544396449216
LAPAN-A3                
1 41603U 16040E   24189.97170055  .00003727  00000+0  14979-3 0  9994
2 41603  97.1408 202.7516 0012896  36.1069 324.1038 15.25445685446391
BIROS                   
1 41604U 16040F   24189.35882077  .00011233  00000+0  29235-3 0  9993
2 41604  97.1209 217.2500 0007365 346.1114  13.9928 15.39027747447285
GAOFEN-3                
1 41727U 16049A   24189.97017048  .00000113  00000+0  47344-4 0  9991
2 41727  98.4042 197.3275 0001301  98.7113 261.4224 14.42222195416417
SKYSAT-C4               
1 41771U 16058B   24189.57647131  .00011311  00000+0  34027-3 0  9993
2 41771  97.0081 236.0977 0005107 100.0239 260.1581 15.34514408436347
SKYSAT-C5               
1 41772U 16058C   24189.40585911  .00010888  00000+0  33047-3 0  9992
2 41772  97.1566 244.0665 0002530  57.1928 302.9559 15.34257208434793
SKYSAT-C2               
1 41773U 16058D   24189.36756607  .00008815  00000+0  31018-3 0  9993
2 41773  97.0102 234.5593 0004309 120.5523 239.6144 15.29538209436206
SKYSAT-C3               
1 41774U 16058E   24189.59023063  .00016632  00000+0  39811-3 0  9997
2 41774  97.0091 242.7368 0005068 111.0349 249.1441 15.41501918436789
ALSAT 1B                
1 41785U 16059C   24189.87309102  .00000632  00000+0  11059-3 0  9999
2 41785  97.8171 217.4390 0009223 353.2026   6.9054 14.71023664416248
PATHFINDER 1            
1 41787U 16059E   24189.97002778  .00001037  00000+0  19861-3 0  9990
2 41787  97.8296 211.1199 0028241 306.5419  53.3185 14.65557939415749
SCATSAT 1               
1 41790U 16059H   24189.71385092  .00000958  00000+0  16002-3 0  9994
2 41790  98.2188 232.6217 0062120   0.9923 359.1395 14.71068729412104
GOKTURK 1A              
1 41875U 16073A   24190.10304723  .00000678  00000+0  14203-3 0  9991
2 41875  98.1482  84.1710 0001699  93.0455 267.0942 14.62788901405163
RESOURCESAT-2A          
1 41877U 16074A   24189.91056322  .00000237  00000+0  12762-3 0  9999
2 41877  98.6450 262.9528 0000553  33.9785 326.1428 14.21662021393537
CARTOSAT-2D             
1 41948U 17008A   24189.80435965  .00006402  00000+0  30701-3 0  9991
2 41948  97.4243 248.7298 0006156 196.6660 163.4373 15.19224412409875
SENTINEL-2B             
1 42063U 17013A   24189.90684544  .00000217  00000+0  99304-4 0  9999
2 42063  98.5689 263.8778 0001171  95.4745 264.6571 14.30821889383220
NUSAT-3 (MILANESAT)     
1 42760U 17034C   24189.93864628  .00019647  00000+0  62266-3 0  9995
2 42760  43.0079  93.9996 0013825 159.3635 200.7780 15.32281375390777
CARTOSAT-2E             
1 42767U 17036C   24189.88675951  .00006237  00000+0  29899-3 0  9993
2 42767  97.4365 248.9451 0004660 262.5404  97.5301 15.19255777390459
FORMOSAT-5              
1 42920U 17049A   24189.81235855  .00000356  00000+0  10107-3 0  9994
2 42920  98.2909 267.2416 0011921 105.0862 255.1652 14.50996283363814
SENTINEL-5P             
1 42969U 17064A   24189.41510802  .00000101  00000+0  68823-4 0  9995
2 42969  98.7214 128.3141 0001092  79.1466 280.9833 14.19541277348861
SKYSAT-C11              
1 42987U 17068A   24189.32109277  .00016698  00000+0  41306-3 0  9993
2 42987  97.3612 315.7596 0002631 209.1075 151.0025 15.40521343373748
