OBJECT_NAME,OBJECT_ID,EPOCH,MEAN_MOTION,ECCENTRICITY,INCLINATION,RA_OF_ASC_NODE,ARG_OF_PERICENTER,MEAN_ANOMALY,EPHEMERIS_TYPE,CLASSIFICATION_TYPE,NORAD_CAT_ID,ELEMENT_SET_NO,REV_AT_EPOCH,BSTAR,MEAN_MOTION_DOT,MEAN_MOTION_DDOT
YAOGAN-28,2015-064A,2024-07-08T03:19:28.333632,15.23941050,.0007229,97.2137,339.6612,112.6482,247.5521,0,U,41026,999,48267,.42057E-3,.10113E-3,0
YAOGAN-29,2015-069A,2024-07-07T23:24:56.885760,14.81730278,.0002389,98.0541,204.5086,131.4625,228.6793,0,U,41038,999,46554,.99014E-4,.726E-5,0
KENT RIDGE 1,2015-077B,2024-07-08T02:03:50.539104,15.15294034,.0009915,14.9807,112.3681,3.4474,356.5914,0,U,41167,999,47319,.20133E-3,.4611E-4,0
TELEOS-1,2015-077D,2024-07-07T04:20:09.627936,15.31857692,.0005831,14.9808,22.3188,168.1771,191.8690,0,U,41169,999,47392,.54232E-3,.1814E-3,0
GAOFEN-4,2015-083A,2024-07-07T13:42:42.443712,1.00269446,.000126,0.0804,251.7851,205.0319,140.5189,0,U,41194,999,3141,0,-.338E-5,0
JASON-3,2016-002A,2024-07-07T13:36:05.848704,12.80928940,.0008487,66.0397,169.0132,269.6739,90.3304,0,U,41240,999,39611,-.41726E-4,-.71E-6,0
SENTINEL-3A,2016-011A,2024-07-07T22:08:59.257248,14.26742694,.000135,98.6230,256.4323,92.3756,267.7579,0,U,41335,999,43692,.10735E-3,.216E-5,0
ZIYUAN 3-2 (ZY 3-2),2016-033A,2024-07-07T22:35:26.605824,15.21333857,.0001669,97.4556,265.1084,134.8973,225.2398,0,U,41556,999,45015,.3846E-3,.8546E-4,0
CARTOSAT-2C,2016-040A,2024-07-07T21:39:35.008128,15.19314172,.0014263,97.4727,248.7467,90.8658,269.4211,0,U,41599,999,44602,.33505E-3,.7026E-4,0
SKYSAT-C1,2016-040C,2024-07-07T06:05:43.994688,15.29544396,.000303,97.0608,248.6548,152.7309,207.4092,0,U,41601,999,44921,.34452E-3,.9799E-4,0
LAPAN-A3,2016-040E,2024-07-07T23:19:14.927520,15.25445685,.0012896,97.1408,202.7516,36.1069,324.1038,0,U,41603,999,44639,.14979E-3,.3727E-4,0
BIROS,2016-040F,2024-07-07T08:36:42.114528,15.39027747,.0007365,97.1209,217.2500,346.1114,13.9928,0,U,41604,999,44728,.29235E-3,.11233E-3,0
GAOFEN-3,2016-049A,2024-07-07T23:17:02.729472,14.42222195,.0001301,98.4042,197.3275,98.7113,261.4224,0,U,41727,999,41641,.47344E-4,.113E-5,0
SKYSAT-C4,2016-058B,2024-07-07T13:50:07.121184,15.34514408,.0005107,97.0081,236.0977,100.0239,260.1581,0,U,41771,999,43634,.34027E-3,.11311E-3,0
SKYSAT-C5,2016-058C,2024-07-07T09:44:26.227104,15.34257208,.000253,97.1566,244.0665,57.1928,302.9559,0,U,41772,999,43479,.33047E-3,.10888E-3,0
SKYSAT-C2,2016-058D,2024-07-07T08:49:17.708448,15.29538209,.0004309,97.0102,234.5593,120.5523,239.6144,0,U,41773,999,43620,.31018E-3,.8815E-4,0
SKYSAT-C3,2016-058E,2024-07-07T14:09:55.926432,15.41501918,.0005068,97.0091,242.7368,111.0349,249.1441,0,U,41774,999,43678,.39811E-3,.16632E-3,0
ALSAT 1B,2016-059C,2024-07-07T20:57:15.064128,14.71023664,.0009223,97.8171,217.4390,353.2026,6.9054,0,U,41785,999,41624,.11059E-3,.632E-5,0
PATHFINDER 1,2016-059E,2024-07-07T23:16:50.400192,14.65557939,.0028241,97.8296,211.1199,306.5419,53.3185,0,U,41787,999,41574,.19861E-3,.1037E-4,0
SCATSAT 1,2016-059H,2024-07-07T17:07:56.719488,14.71068729,.006212,98.2188,232.6217,0.9923,359.1395,0,U,41790,999,41210,.16002E-3,.958E-5,0
GOKTURK 1A,2016-073A,2024-07-08T02:28:23.280672,14.62788901,.0001699,98.1482,84.1710,93.0455,267.0942,0,U,41875,999,40516,.14203E-3,.678E-5,0
RESOURCESAT-2A,2016-074A,2024-07-07T21:51:12.662208,14.21662021,.0000553,98.6450,262.9528,33.9785,326.1428,0,U,41877,999,39353,.12762E-3,.237E-5,0
CARTOSAT-2D,2017-008A,2024-07-07T19:18:16.673760,15.19224412,.0006156,97.4243,248.7298,196.6660,163.4373,0,U,41948,999,40987,.30701E-3,.6402E-4,0
SENTINEL-2B,2017-013A,2024-07-07T21:45:51.446016,14.30821889,.0001171,98.5689,263.8778,95.4745,264.6571,0,U,42063,999,38322,.99304E-4,.217E-5,0
ZHUHAI-1 02 (CAS-4B),2017-034B,2024-07-07T21:22:39.416736,15.28982893,.0010373,43.0180,109.4829,130.5637,229.6120,0,U,42759,999,39057,.56811E-3,.1611E-3,0
NUSAT-3 (MILANESAT),2017-034C,2024-07-07T22:31:39.038592,15.32281375,.0013825,43.0079,93.9996,159.3635,200.7780,0,U,42760,999,39077,.62266E-3,.19647E-3,0
ZHUHAI-1 01 (CAS-4A),2017-034D,2024-07-07T21:22:22.915200,15.29104505,.0009548,43.0220,107.8196,145.0958,215.0522,0,U,42761,999,39058,.57141E-3,.16263E-3,0
CARTOSAT-2E,2017-036C,2024-07-07T21:16:56.021664,15.19255777,.000466,97.4365,248.9451,262.5404,97.5301,0,U,42767,999,39045,.29899E-3,.6237E-4,0
FORMOSAT-5,2017-049A,2024-07-07T19:29:47.778720,14.50996283,.0011921,98.2909,267.2416,105.0862,255.1652,0,U,42920,999,36381,.10107E-3,.356E-5,0
SENTINEL-5P,2017-064A,2024-07-07T09:57:45.332928,14.19541277,.0001092,98.7214,128.3141,79.1466,280.9833,0,U,42969,999,34886,.68823E-4,.101E-5,0
SKYSAT-C11,2017-068A,2024-07-07T07:42:22.415328,15.40521343,.0002631,97.3612,315.7596,209.1075,151.0025,0,U,42987,999,37374,.41306E-3,.16698E-3,0
